[{"OBJECT_NAME":"OBJECT J","OBJECT_ID":"2025-155J","EPOCH":"2026-03-09T22:09:22.347648","MEAN_MOTION":15.2758258,"ECCENTRICITY":0.00088188,"INCLINATION":97.4475,"RA_OF_ASC_NODE":37.3123,"ARG_OF_PERICENTER":150.071,"MEAN_ANOMALY":210.1035,"EPHEMERIS_TYPE":0,"CLASSIFICATION_TYPE":"U","NORAD_CAT_ID":64884,"ELEMENT_SET_NO":999,"REV_AT_EPOCH":6559,"BSTAR":0.00051444498,"MEAN_MOTION_DOT":0.00013827,"MEAN_MOTION_DDOT":0},{"OBJECT_NAME":"STARLINK-36135","OBJECT_ID":"2025-288AD","EPOCH":"2026-03-09T22:18:51.613056","MEAN_MOTION":15.27587448,"ECCENTRICITY":0.00013425,"INCLINATION":43.0036,"RA_OF_ASC_NODE":22.1315,"ARG_OF_PERICENTER":254.0422,"MEAN_ANOMALY":106.0282,"EPHEMERIS_TYPE":0,"CLASSIFICATION_TYPE":"U","NORAD_CAT_ID":66986,"ELEMENT_SET_NO":999,"REV_AT_EPOCH":1532,"BSTAR":0.0008482019,"MEAN_MOTION_DOT":0.00023157,"MEAN_MOTION_DDOT":0}]
